NORAD_CAT_ID,OBJECT_NAME,OBJECT_TYPE,EPOCH,MEAN_MOTION,ECCENTRICITY,INCLINATION,RA_OF_ASC_NODE,ARG_OF_PERICENTER,MEAN_ANOMALY,BSTAR,MEAN_MOTION_DOT,MEAN_MOTION_DDOT,TLE_LINE0,TLE_LINE1,TLE_LINE2,SEMIMAJOR_AXIS,PERIOD,APOGEE,PERIGEE,DECAYED
51105.0,STARLINK-3350,PAYLOAD,2024-01-01 17:16:15,15.08842356,0.0001406,53.2163,271.3483,100.6608,259.4542,0.00020596,2.992e-05,0.0,0 STARLINK-3350,1 51105U 22005B   24001.71962653  .00002992  00000-0  20596-3 0  9994,2 51105  53.2163 271.3483 0001406 100.6608 259.4542 15.08842356109524,6917.873,95.437,540.711,538.766,0.0
51105.0,STARLINK-3350,PAYLOAD,2024-01-01 22:02:24,15.08849947,0.0001393,53.2165,270.4575,99.3092,260.8058,0.0002922,4.367e-05,0.0,0 STARLINK-3350,1 51105U 22005B   24001.91834265  .00004367  00000-0  29220-3 0  9994,2 51105  53.2165 270.4575 0001393  99.3092 260.8058 15.08849947108445,6917.85,95.437,540.679,538.751,0.0
51105.0,STARLINK-3350,PAYLOAD,2024-01-02 01:13:11,15.08854035,0.0001331,53.2158,269.8629,90.0194,270.0951,0.00038275,5.811e-05,0.0,0 STARLINK-3350,1 51105U 22005B   24002.05082177  .00005811  00000-0  38275-3 0  9992,2 51105  53.2158 269.8629 0001331  90.0194 270.0951 15.08854035109576,6917.837,95.437,540.623,538.782,0.0
51105.0,STARLINK-3350,PAYLOAD,2024-01-02 17:07:02,15.08846486,0.000137,53.2169,266.8911,73.4015,286.7127,0.00017983,2.576e-05,0.0,0 STARLINK-3350,1 51105U 22005B   24002.71322436  .00002576  00000-0  17983-3 0  9998,2 51105  53.2169 266.8911 0001370  73.4015 286.7127 15.08846486109670,6917.861,95.437,540.673,538.778,0.0
51105.0,STARLINK-3350,PAYLOAD,2024-01-02 21:53:11,15.08845851,0.0001423,53.216,265.9973,81.0346,279.0808,0.00016769,2.382e-05,0.0,0 STARLINK-3350,1 51105U 22005B   24002.91194399  .00002382  00000-0  16769-3 0  9991,2 51105  53.2160 265.9973 0001423  81.0346 279.0808 15.08845851108596,6917.863,95.437,540.712,538.743,0.0
51105.0,STARLINK-3350,PAYLOAD,2024-01-03 02:39:21,15.08850589,0.0001475,53.217,265.1053,75.1288,284.9868,0.00021887,3.198e-05,0.0,0 STARLINK-3350,1 51105U 22005B   24003.11066213  .00003198  00000-0  21887-3 0  9990,2 51105  53.2170 265.1053 0001475  75.1288 284.9868 15.08850589108623,6917.848,95.437,540.733,538.693,0.0
51105.0,STARLINK-3350,PAYLOAD,2024-01-03 21:43:59,15.08838116,0.000168,53.2164,261.5369,78.8469,281.2712,-6.1997e-07,-2.98e-06,0.0,0 STARLINK-3350,1 51105U 22005B   24003.90554699 -.00000298  00000-0 -61997-6 0  9996,2 51105  53.2164 261.5369 0001680  78.8469 281.2712 15.08838116108748,6917.886,95.438,540.913,538.589,0.0
51105.0,STARLINK-3350,PAYLOAD,2024-01-04 02:30:08,15.08845783,0.0001596,53.2155,260.6435,84.7187,275.3987,5.8924e-05,6.5e-06,0.0,0 STARLINK-3350,1 51105U 22005B   24004.10426352  .00000650  00000-0  58924-4 0  9997,2 51105  53.2155 260.6435 0001596  84.7187 275.3987 15.08845783109883,6917.863,95.437,540.832,538.624,0.0
51105.0,STARLINK-3350,PAYLOAD,2024-01-04 19:59:23,15.08836392,0.0001631,53.2158,257.3667,97.2868,262.831,-4.7438e-05,-1.043e-05,0.0,0 STARLINK-3350,1 51105U 22005B   24004.83290972 -.00001043  00000-0 -47438-4 0  9991,2 51105  53.2158 257.3667 0001631  97.2868 262.8310 15.08836392109990,6917.891,95.438,540.885,538.628,0.0
51105.0,STARLINK-3350,PAYLOAD,2024-01-04 21:34:46,15.08835717,0.0001736,53.2158,257.0694,96.5824,263.5366,-2.6911e-05,-7.16e-06,0.0,0 STARLINK-3350,1 51105U 22005B   24004.89915039 -.00000716  00000-0 -26911-4 0  9994,2 51105  53.2158 257.0694 0001736  96.5824 263.5366 15.08835717108894,6917.893,95.438,540.959,538.558,0.0
51105.0,STARLINK-3350,PAYLOAD,2024-01-05 02:20:56,15.08831066,0.0001565,53.2168,256.1791,97.0806,263.0364,5.7233e-05,6.23e-06,0.0,0 STARLINK-3350,1 51105U 22005B   24005.09787486  .00000623  00000-0  57233-4 0  9996,2 51105  53.2168 256.1791 0001565  97.0806 263.0364 15.08831066108929,6917.908,95.438,540.855,538.69,0.0
51105.0,STARLINK-3350,PAYLOAD,2024-01-05 21:25:33,15.08841986,0.0001779,53.2173,252.6129,104.1232,255.9958,0.00011117,1.482e-05,0.0,0 STARLINK-3350,1 51105U 22005B   24005.89274713  .00001482  00000-0  11117-3 0  9992,2 51105  53.2173 252.6129 0001779 104.1232 255.9958 15.08841986109046,6917.874,95.437,540.97,538.509,0.0
51105.0,STARLINK-3350,PAYLOAD,2024-01-05 23:00:56,15.08842124,0.0001749,53.2174,252.3157,101.6399,258.4789,0.00010627,1.404e-05,0.0,0 STARLINK-3350,1 51105U 22005B   24005.95898727  .00001404  00000-0  10627-3 0  9995,2 51105  53.2174 252.3157 0001749 101.6399 258.4789 15.08842124110168,6917.874,95.437,540.949,538.529,0.0
51105.0,STARLINK-3350,PAYLOAD,2024-01-06 19:40:57,15.08839872,0.0001628,53.2168,248.4522,94.8591,265.2587,0.00010952,1.455e-05,0.0,0 STARLINK-3350,1 51105U 22005B   24006.82011060  .00001455  00000-0  10952-3 0  9996,2 51105  53.2168 248.4522 0001628  94.8591 265.2587 15.08839872110298,6917.881,95.438,540.872,538.62,0.0
51105.0,STARLINK-3350,PAYLOAD,2024-01-06 21:16:20,15.08839362,0.0001624,53.2167,248.1548,94.8986,265.2191,0.00010146,1.327e-05,0.0,0 STARLINK-3350,1 51105U 22005B   24006.88635070  .00001327  00000-0  10146-3 0  9998,2 51105  53.2167 248.1548 0001624  94.8986 265.2191 15.08839362109198,6917.882,95.438,540.871,538.624,0.0
51105.0,STARLINK-3350,PAYLOAD,2024-01-07 19:31:45,15.08837645,0.0001693,53.2169,243.9944,101.6472,258.471,2.5864e-05,1.24e-06,0.0,0 STARLINK-3350,1 51105U 22005B   24007.81371601  .00000124  00000-0  25864-4 0  9997,2 51105  53.2169 243.9944 0001693 101.6472 258.4710 15.08837645110449,6917.888,95.438,540.924,538.581,0.0
51105.0,STARLINK-3350,PAYLOAD,2024-01-07 22:42:31,15.08836935,0.0001626,53.2166,243.3988,96.6569,263.4608,7.7209e-06,-1.65e-06,0.0,0 STARLINK-3350,1 51105U 22005B   24007.94619646 -.00000165  00000-0  77209-5 0  9992,2 51105  53.2166 243.3988 0001626  96.6569 263.4608 15.08836935109355,6917.89,95.438,540.88,538.63,0.0
51105.0,STARLINK-3350,PAYLOAD,2024-01-08 22:33:18,15.08840788,0.0001561,53.2161,238.9367,83.9153,276.2017,0.00011177,1.491e-05,0.0,0 STARLINK-3350,1 51105U 22005B   24008.93979317  .00001491  00000-0  11177-3 0  9998,2 51105  53.2161 238.9367 0001561  83.9153 276.2017 15.08840788109501,6917.878,95.438,540.823,538.663,0.0
51105.0,STARLINK-3350,PAYLOAD,2024-01-09 00:08:41,15.08841696,0.0001572,53.2162,238.6395,88.1167,272.0005,0.00011812,1.592e-05,0.0,0 STARLINK-3350,1 51105U 22005B   24009.00603238  .00001592  00000-0  11812-3 0  9991,2 51105  53.2162 238.6395 0001572  88.1167 272.0005 15.08841696110629,6917.875,95.437,540.828,538.653,0.0
51105.0,STARLINK-3350,PAYLOAD,2024-01-09 22:24:05,15.08840627,0.0001601,53.2166,234.4759,87.3856,272.7319,0.00010697,1.415e-05,0.0,0 STARLINK-3350,1 51105U 22005B   24009.93339471  .00001415  00000-0  10697-3 0  9992,2 51105  53.2166 234.4759 0001601  87.3856 272.7319 15.08840627109659,6917.878,95.438,540.851,538.636,0.0
51105.0,STARLINK-3350,PAYLOAD,2024-01-09 23:59:28,15.08841905,0.0001623,53.2167,234.1766,86.6299,273.4879,0.00011755,1.583e-05,0.0,0 STARLINK-3350,1 51105U 22005B   24009.99963358  .00001583  00000-0  11755-3 0  9997,2 51105  53.2167 234.1766 0001623  86.6299 273.4879 15.08841905109662,6917.875,95.437,540.862,538.617,0.0
51105.0,STARLINK-3350,PAYLOAD,2024-01-10 19:04:06,15.08841791,0.000168,53.2169,230.6113,88.3145,271.8039,3.9665e-05,3.43e-06,0.0,0 STARLINK-3350,1 51105U 22005B   24010.79451619  .00000343  00000-0  39665-4 0  9993,2 51105  53.2169 230.6113 0001680  88.3145 271.8039 15.08841791110893,6917.875,95.437,540.902,538.578,0.0
51105.0,STARLINK-3350,PAYLOAD,2024-01-10 22:14:52,15.08843496,0.000168,53.2169,230.0165,86.4714,273.647,4.8368e-05,4.82e-06,0.0,0 STARLINK-3350,1 51105U 22005B   24010.92699479  .00000482  00000-0  48368-4 0  9990,2 51105  53.2169 230.0165 0001680  86.4714 273.6470 15.08843496109807,6917.87,95.437,540.897,538.573,0.0
51105.0,STARLINK-3350,PAYLOAD,2024-01-11 20:30:16,15.08838269,0.000164,53.2167,225.8537,87.6755,272.4425,8.5839e-06,-1.51e-06,0.0,0 STARLINK-3350,1 51105U 22005B   24011.85435939 -.00000151  00000-0  85839-5 0  9991,2 51105  53.2167 225.8537 0001640  87.6755 272.4425 15.08838269109948,6917.886,95.438,540.885,538.616,0.0
51105.0,STARLINK-3350,PAYLOAD,2024-01-12 20:21:03,15.08838981,0.0001505,53.2168,221.3927,95.3976,264.7188,4.2798e-05,3.93e-06,0.0,0 STARLINK-3350,1 51105U 22005B   24012.84795896  .00000393  00000-0  42798-4 0  9995,2 51105  53.2168 221.3927 0001505  95.3976 264.7188 15.08838981110093,6917.884,95.438,540.79,538.707,0.0
51105.0,STARLINK-3350,PAYLOAD,2024-01-12 23:31:49,15.08840759,0.0001487,53.2164,220.797,97.5999,262.5162,4.9214e-05,4.95e-06,0.0,0 STARLINK-3350,1 51105U 22005B   24012.98043739  .00000495  00000-0  49214-4 0  9995,2 51105  53.2164 220.7970 0001487  97.5999 262.5162 15.08840759111228,6917.878,95.438,540.772,538.714,0.0
51105.0,STARLINK-3350,PAYLOAD,2024-01-13 23:22:36,15.08845528,0.0001315,53.216,216.3352,81.1149,278.9992,0.00014309,1.99e-05,0.0,0 STARLINK-3350,1 51105U 22005B   24013.97403294  .00001990  00000-0  14309-3 0  9998,2 51105  53.2160 216.3352 0001315  81.1149 278.9992 15.08845528110269,6917.863,95.437,540.638,538.819,0.0
51105.0,STARLINK-3350,PAYLOAD,2024-01-14 18:27:14,15.08836403,0.0001316,53.216,212.7657,90.3878,269.7265,2.5014e-05,1.1e-06,0.0,0 STARLINK-3350,1 51105U 22005B   24014.76892219  .00000110  00000-0  25014-4 0  9994,2 51105  53.2160 212.7657 0001316  90.3878 269.7265 15.08836403111498,6917.891,95.438,540.667,538.846,0.0
51105.0,STARLINK-3350,PAYLOAD,2024-01-15 18:18:01,15.08843686,0.0001386,53.2158,208.3034,106.518,253.5965,4.3845e-05,4.1e-06,0.0,0 STARLINK-3350,1 51105U 22005B   24015.76251543  .00000410  00000-0  43845-4 0  9999,2 51105  53.2158 208.3034 0001386 106.5180 253.5965 15.08843686111644,6917.869,95.437,540.693,538.775,0.0
51105.0,STARLINK-3350,PAYLOAD,2024-01-16 11:47:16,15.0883609,0.0001244,53.2159,205.0361,94.349,265.7645,7.054e-05,8.35e-06,0.0,0 STARLINK-3350,1 51105U 22005B   24016.49116097  .00000835  00000-0  70540-4 0  9997,2 51105  53.2159 205.0361 0001244  94.3490 265.7645 15.08836090111756,6917.892,95.438,540.618,538.897,0.0
